STARLINK-31486          
1 59181U 24045D   26068.06651491  .00000631  00000+0  32457-4 0  9997
2 59181  43.0039  92.8157 0001946 286.8405  73.2233 15.27575600113104
FLOCK 4G-23             
1 62647U 25009AQ  26068.71663397  .00012440  00000+0  46816-3 0  9993
2 62647  97.3979 150.9478 0000905   7.2707 352.8545 15.27262579 63728
